STARLINK-32468          
1 62149U 24224L   26068.25273075  .00039213  00000+0  14269-2 0  9990
2 62149  43.0007 160.5338 0000853 242.2543 117.8222 15.27581167 72254
HAWK-11B                
1 62379U 24247C   26068.44730104  .00009093  00000+0  32842-3 0  9993
2 62379  45.0161 115.7610 0004690 333.0326  27.0314 15.28847070 67738
